OBJECT B                
1 51825U 22019B   25161.91632316  .00014833  00000+0  36605-3 0  9992
2 51825  97.3859 238.5630 0010916  53.3170 306.9078 15.40563983182106
